#dP2023  8 27  0  0  0.00000000      96 __u+U ITR00 EXT  IAC
## 2277      0.00000000   900.00000000 60183 0.0000000000000
+  118   C06C07C08C09C10C11C12C13C14C16C19C20C21C22C23C24C25
+        C26C27C28C29C30C32C33C34C35C36C37C38C39C40C41C42C43
+        C44C45C46E02E03E04E05E07E08E09E10E11E12E13E14E15E18
+        E19E21E24E25E26E27E30E31E33E34E36G01G02G03G04G05G06
+        G07G08G09G10G11G12G13G14G15G16G17G18G19G20G21G22G23
+        G24G25G26G27G28G29G30G31J02J03J04R01R02R03R04R05R07
+        R08R09R11R12R13R14R15R16R17R18R19R20R21R22R24R25  0
++        10 10  9 10  9  9  8  9 10 10  9  8  8  6  9  8  7
++         8  8  8  9  8  8  8  8  8  9  8  9  8 10  8  8  8
++         8  7  9  7  9  8  7  8  7  8  8  7  8  8  8  7  8
++         8  7  7  7  7  7  6  6  7  8  7  6  7  8  7  7  7
++         8  6  7  8  6  7  7  7  7  7  6  8  8  7  7  7  8
++         6  6  7  8  7  7  7  7 10  9  8  8  8  7  9  9  8
++         9  8  7  6  9  8  8  8  8  8  9  8  8  8  7  8  0
%c M  cc GPS ccc cccc cccc cccc cccc ccccc ccccc ccccc ccccc
%c cc cc ccc ccc cccc cccc cccc cccc ccccc ccccc ccccc ccccc
%f  0.0000000  0.000000000  0.00000000000  0.000000000000000
%f  0.0000000  0.000000000  0.00000000000  0.000000000000000
%i    0    0    0    0      0      0      0      0         0
%i    0    0    0    0      0      0      0      0         0
/* IAC                                ULTRA-RAPID PREDICTION
/* S/V CLOCKS ARE ALIGNED TO GNSS TIME                      
/* G:C1WC2W R:C1PC2P E:C1XC5X C:C2IC6I J:C1CC2S             
/* PCV:IGS20_2274 OL/AL:FES2004  NONE     YN ORB:CoN CLK:CoN
*  2023 08 27  7 45  0.00000000
PC06  -4940.990907  39064.030634  15493.212603    937.499553
PC07  -9696.077789  25769.087616 -31852.667188      6.465441
PC08 -20111.514367  31782.753530  18806.633955    372.503041
PC09   -694.208154  41816.498563   7812.224204    241.693109
PC10  -1727.553451  27317.496647 -31693.866431   -158.627023
PC11  17632.635423   7587.293898  20310.654940    800.630721
PC12  14130.006909  23345.479271   5829.063261    906.192219
PC13 -13266.898447  32182.906242  23711.456287    341.477745
PC14  27738.484284   2760.724788     69.235937    298.990368
PC16  -7046.129347  37324.115910  18873.874736    -53.215131
PC19 -26137.697104   3639.246782   9124.306932   -969.487597
PC20 -25725.097111  -7744.791313  -7603.710733    330.493883
PC21   9595.359387  15433.287977  21177.047670   -957.099492
PC22 -11559.418609  13522.678514  21496.726700   -333.585442
PC23  15389.688827 -23235.578346   1479.239123   -891.218544
PC24  14309.548448   8033.058919 -22577.289883    327.949868
PC25  20714.765492 -12043.674930 -14327.235138    198.200321
PC26    587.314362  21623.435567 -17623.333768   -169.065714
PC27  -9547.619939 -26096.841880   2518.006829    190.402979
PC28   3289.132279 -21910.977973  16975.165082    142.580844
PC29 -15792.120179   3821.364125 -22694.350592    166.402779
PC30 -18328.476762 -16193.873202 -13432.609293     -4.043949
PC32  -9630.030799 -15377.952384 -21198.659769   -530.448837
PC33  26139.998179  -3740.040501  -9005.956984   -948.336245
PC34  18557.070598  14997.530406  14471.307034    246.172131
PC35  -2685.659558  21936.563165 -17069.774201    559.241890
PC36 -20970.273238  10782.663120  14945.435492   -255.854892
PC37    720.040465 -22096.765318  17060.155216   -814.892466
PC38 -24589.024358  32447.491649  10624.073231    100.846832
PC39  -8803.430565  33847.038472  23765.368158     -4.510051
PC40 -14532.249435  19050.261745 -34696.900606    -34.341335
PC41  12257.700349 -13339.597392 -21178.627661   -883.953437
PC42  24986.069416   8571.859103   8994.975993   -565.120067
PC43  16265.921329  -2875.816666  22483.188523     37.077405
PC44  10363.835347  25780.958693  -2736.493936    212.768066
PC45 -15114.248252  23358.727405  -1987.585666    -18.721521
PC46 -14994.577765  -6743.069596  22548.714069    -79.656349
PE02  27353.094185 -11312.073934    682.413365     58.217141
PE03  19707.509522  -3917.991071 -21737.210421    -49.982538
PE04  -2605.059912  18435.042678  23015.076490   -198.557464
PE05  25436.235549  12990.500580  -7768.397339     12.783938
PE07 -15993.117875 -22333.705391 -11038.970095    -70.387637
PE08   2932.511849 -18105.169971 -23238.293517   -136.751498
PE09  15923.766214  22275.789187  11223.211959   -134.948939
PE10  -1405.561720  29280.533461   4039.300735   -559.190589
PE11   5404.878643  25612.300445  13807.188960   2810.711923
PE12  -7487.242283  28132.108082  -5387.595520   -673.945385
PE13  -4965.775708 -26004.569009 -13244.640527    -19.516428
PE14  -8763.357712  17330.871328 -22263.289697    323.019165
PE15   7653.305727 -28004.824515   5785.755528    -48.381854
PE18  -8566.081299 -23419.353720  13228.808464    460.915175
PE19 -21194.610001   1460.411632  20615.377537  -1761.649142
PE21 -24760.182182  -2056.776337  16096.643534   -549.071732
PE24   7026.574766  15319.813503 -24340.048497   -288.349255
PE25  24567.548307   2312.097875 -16337.939703     -0.889331
PE26 -14861.524354  -8058.438522 -24299.785028    204.758908
PE27  -7694.583253 -14977.932074  24352.646092   -134.819659
PE30  14188.897530 -18873.310642  17855.044731   -451.103215
PE31 -13709.118363  18920.994761 -18158.002442     -3.642706
PE33 -15734.141648  12912.435445 -21488.556327     -1.130357
PE34  15587.288275 -13644.190853  21140.490399    -63.768411
PE36  14497.816912   8817.709042  24249.796909   -107.145071
PG01  13501.822371 -15856.754381  15934.373343    167.190967
PG02  14890.586045  -9002.743185  20520.567803   -560.917856
PG03  22360.656513 -12876.844344  -6184.948163   -166.933844
PG04  13336.557932  -8151.499726 -21478.506413    137.977063
PG05 -24723.132009   3721.942315  -9299.401231   -140.383973
PG06  -6476.270739 -20775.503888 -15103.213780    560.307269
PG07   5472.205326 -25625.547820  -1743.054123     84.213029
PG08  20827.339722   1307.950199  16584.136160   -139.218320
PG09   4236.862165 -15592.814122 -21151.093156    -75.937659
PG10   5438.074451  13854.042238  22178.058491    -50.930520
PG11 -13487.125834  -7912.682830 -21462.795661   -339.857064
PG12 -24658.167779   9431.397100  -2764.632673   -417.727599
PG13 -21143.934697 -10937.981238  11808.395687    565.176993
PG14  -1494.081231 -15726.254738  21357.788769    166.581435
PG15 -20513.538770   1855.798201  16424.480526     71.677220
PG16  23503.028933   2641.400678 -12834.843118   -462.735068
PG17 -10429.332762 -21199.324394  12453.892539    723.218058
PG18  -4622.026650  26056.567396    146.618524   -396.794877
PG19 -16450.946660 -20633.750373   4117.570710    363.238558
PG20 -19329.892541  -3370.147230 -17775.909520    415.055404
PG21  15329.306631  -5429.416918  21356.645026    150.037508
PG22  -8969.524711 -13157.367616  21682.992351    133.682716
PG23  -8437.403073  17036.910539  18478.666455     60.288803
PG24 -14491.049619  11647.507962  18437.751912   -301.968723
PG25 -15207.432272  16740.345322 -14023.272689    464.469054
PG26  16033.533476   8582.725115 -19585.455978    231.261610
PG27  22725.960391  12118.439028   7061.642481    -29.199528
PG28   6542.802557  22058.300628 -13292.750153     -2.303595
PG29  -5455.484143  14810.812205 -21393.180095   -608.483490
PG30  -1276.896565 -25358.351340   7444.224441   -493.052961
PG31  11918.705818  13030.409524 -19894.131614   -222.481402
PJ02 -36039.121720  17951.370678  -7894.046206     -3.113044
PJ03 -20351.019896  27953.169978 -19475.362173     -1.661413
PJ04 -26730.353758  28613.984833  21451.694875     70.495967
PR01  -3412.277853 -11892.678091 -22312.161675     64.332372
PR02 -19757.949943 -11424.769856 -11281.197612    -22.493804
PR03 -24414.021081  -4096.836158   6061.692244     84.065259
PR04 -15470.464139   4931.870055  19690.635167    200.341169
PR05   1776.685178  11536.691378  22690.077648    117.995979
PR07  24328.501959   3768.661137  -6745.287137     63.314158
PR08  15365.556535  -5163.890216 -19653.820207    -72.310549
PR09   7632.055517   8388.327942 -22826.784813    138.937993
PR11  18810.014437 -17055.966663  -2322.413202   -144.365877
PR12   8013.914085 -18387.190417  15797.614596     30.608733
PR13  -5708.145179  -9815.165076  22833.569282    -38.585486
PR14 -18130.761149   6423.857588  16782.932541     25.139387
PR15 -18624.721176  17407.318287   1020.744469     86.677527
PR16  -8248.841442  18463.575183 -15555.309025     18.101936
PR17 -11513.868070  -4372.908778 -22339.433345     12.356226
PR18  -6582.255038  13176.844536 -20824.277319     98.829658
PR19    155.791577  23467.822146  -9981.806597   -245.000908
PR20   9086.447422  21271.782729  10793.427329    -99.043846
PR21  11247.106645   3236.219993  22657.630055    -33.459106
PR22   6988.525711 -13892.327821  20242.231367    119.976869
PR24 -10241.862740 -20505.766102 -11205.651225    -22.041557
PR25  11600.882549   4791.575693  22205.351830     40.642238
EOF
